GLOBALSTAR M035 [-]     
1 25851U 99037A   23350.88781775 -.00000080  00000+0 -62740-3 0  9994
2 25851  51.9912 197.7087 0013691 166.9053 292.1245 11.04528471 35678
GLOBALSTAR M032 [-]     
1 25852U 99037B   23350.52563273 -.00000032  00000+0  11016-2 0  9992
2 25852  51.9971  61.5700 0007928 322.1482  37.8760 11.19046939 73366
GLOBALSTAR M051 [-]     
1 25853U 99037C   23351.13546577 -.00000033  00000+0  95566-3 0  9993
2 25853  51.9804 282.9858 0001747 338.1745  21.8991 11.42193963 69783
GLOBALSTAR M030 [-]     
1 25854U 99037D   23350.53681222 -.00000072  00000+0  66574-4 0  9995
2 25854  51.9856 125.4151 0005570 132.8099 227.3187 11.55084642 86749
GLOBALSTAR M048 [-]     
1 25872U 99041A   23350.87223473 -.00000077  00000+0 -17676-3 0  9991
2 25872  51.9331 197.4498 0012452 320.8390 137.5056 11.33842199 62780
GLOBALSTAR M026 [-]     
1 25873U 99041B   23350.24901567 -.00000081  00000+0 -63544-3 0  9990
2 25873  52.0036 322.8809 0001912  55.7592  45.6995 11.06833359 87700
GLOBALSTAR M043 [-]     
1 25874U 99041C   23350.15303101 -.00000097  00000+0 -86615-3 0  9992
2 25874  51.9410 284.9194 0013604  94.3046   8.3782 11.25674535 61043
GLOBALSTAR M028 [-]     
1 25875U 99041D   23350.38563955 -.00000070  00000+0  19472-3 0  9990
2 25875  51.9647  29.4420 0063146 319.7422  39.8772 12.50546124121516
